OBJECT_NAME,OBJECT_ID,EPOCH,MEAN_MOTION,ECCENTRICITY,INCLINATION,RA_OF_ASC_NODE,ARG_OF_PERICENTER,MEAN_ANOMALY,EPHEMERIS_TYPE,CLASSIFICATION_TYPE,NORAD_CAT_ID,ELEMENT_SET_NO,REV_AT_EPOCH,BSTAR,MEAN_MOTION_DOT,MEAN_MOTION_DDOT
MICROCARB,2025-156A,2026-06-20T11:30:56.689056,14.72328320,.0014993,97.9830,248.5584,260.7208,99.2304,0,U,64899,999,4845,.65076E-4,.362E-5,0
CO3D 3,2025-156B,2026-06-20T11:29:25.725408,15.20194218,.0001587,97.4324,250.1245,126.6035,233.5346,0,U,64900,999,5003,.16165E-3,.3433E-4,0
CO3D 4,2025-156C,2026-06-20T09:54:51.803712,15.20197278,.0000098,97.4331,250.0596,241.9959,118.1266,0,U,64901,999,5002,.13182E-4,.218E-5,0
CO3D 2,2025-156D,2026-06-20T09:06:50.641920,15.20193266,.000157,97.4328,249.9261,106.6316,253.5091,0,U,64902,999,5001,.15474E-3,.3283E-4,0
CO3D 1,2025-156E,2026-06-20T01:13:08.300064,15.20215547,.0001352,97.4325,249.6020,114.2620,245.8756,0,U,64903,999,4996,.20076245E-3,.4283E-4,0
SENTINEL-6B,2025-264A,2026-06-20T06:53:12.043680,12.80929983,.0007997,66.0399,128.7401,269.1256,90.8843,0,U,66514,999,2756,.73559E-4,-.44E-6,0
CAS500-3,2025-274F,2026-06-20T09:00:08.875008,14.88327389,.0006853,97.7445,99.3536,102.0514,258.1471,0,U,66655,999,3062,.10546E-3,.922E-5,0
CAS500-2,2026-100AK,2026-06-20T10:37:07.546944,15.20622267,.001036,97.4070,69.2409,24.6187,335.5541,0,U,69013,999,730,.23744E-3,.5146E-4,0
